[{"OBJECT_NAME":"STARLINK-1361","OBJECT_ID":"2020-025AN","EPOCH":"2026-03-09T22:44:55.848768","MEAN_MOTION":15.47742463,"ECCENTRICITY":0.00077177,"INCLINATION":53.0509,"RA_OF_ASC_NODE":72.6747,"ARG_OF_PERICENTER":32.9629,"MEAN_ANOMALY":327.1858,"EPHEMERIS_TYPE":0,"CLASSIFICATION_TYPE":"U","NORAD_CAT_ID":45567,"ELEMENT_SET_NO":999,"REV_AT_EPOCH":32559,"BSTAR":0.0019136745,"MEAN_MOTION_DOT":0.00101742,"MEAN_MOTION_DDOT":0},{"OBJECT_NAME":"COSMOS 394","OBJECT_ID":"1971-010A","EPOCH":"2026-03-09T20:15:48.466944","MEAN_MOTION":15.47493512,"ECCENTRICITY":0.00193792,"INCLINATION":65.8196,"RA_OF_ASC_NODE":237.869,"ARG_OF_PERICENTER":257.4614,"MEAN_ANOMALY":102.4368,"EPHEMERIS_TYPE":0,"CLASSIFICATION_TYPE":"U","NORAD_CAT_ID":4922,"ELEMENT_SET_NO":999,"REV_AT_EPOCH":4264,"BSTAR":0.00014779135,"MEAN_MOTION_DOT":7.438e-5,"MEAN_MOTION_DDOT":0}]
